[{"OBJECT_NAME":"STARLINK-6062","OBJECT_ID":"2023-046M","EPOCH":"2026-03-09T05:42:53.104032","MEAN_MOTION":15.02533078,"ECCENTRICITY":0.00017555,"INCLINATION":43.0034,"RA_OF_ASC_NODE":161.441,"ARG_OF_PERICENTER":267.6803,"MEAN_ANOMALY":92.3838,"EPHEMERIS_TYPE":0,"CLASSIFICATION_TYPE":"U","NORAD_CAT_ID":56104,"ELEMENT_SET_NO":999,"REV_AT_EPOCH":16199,"BSTAR":-6.205985e-6,"MEAN_MOTION_DOT":-2.88e-6,"MEAN_MOTION_DDOT":0},{"OBJECT_NAME":"CZ-4C DEB","OBJECT_ID":"2010-038F","EPOCH":"2026-03-09T16:58:31.008576","MEAN_MOTION":14.75157058,"ECCENTRICITY":0.01220425,"INCLINATION":97.8388,"RA_OF_ASC_NODE":141.0256,"ARG_OF_PERICENTER":182.6031,"MEAN_ANOMALY":177.4559,"EPHEMERIS_TYPE":0,"CLASSIFICATION_TYPE":"U","NORAD_CAT_ID":37570,"ELEMENT_SET_NO":999,"REV_AT_EPOCH":82359,"BSTAR":0.0011084777,"MEAN_MOTION_DOT":8.398e-5,"MEAN_MOTION_DDOT":0}]
